{
  "type": "FeatureCollection",
  "features": [
    {
      "type": "Feature",
      "properties": {
        "norad_id": 55973,
        "name": "TIANMU-1 03",
        "group": "weather",
        "lat": -48.16852239827672,
        "lon": -27.810370843194544,
        "alt_km": 451.88380658088954,
        "timestamp": "2025-12-23T16:57:11.988368+00:00",
        "meta_object_name": "TIANMU-1 03",
        "meta_object_id": "2023-039A",
        "meta_epoch": "2025-12-23T08:10:23.557152",
        "meta_mean_motion": 15.41220257,
        "meta_eccentricity": 0.00038904,
        "meta_inclination": 97.5111,
        "meta_ra_of_asc_node": 160.2902,
        "meta_arg_of_pericenter": 30.8595,
        "meta_mean_anomaly": 329.2879,
        "meta_ephemeris_type": 0,
        "meta_classification_type": "U",
        "meta_norad_cat_id": 55973,
        "meta_element_set_no": 999,
        "meta_rev_at_epoch": 15369,
        "meta_bstar": 0.00038053795,
        "meta_mean_motion_dot": 0.00015734,
        "meta_mean_motion_ddot": 0,
        "tle_line1": "1 55973U 23039A   25357.34055043  .00015734  00000+0  38054-3 0  9994",
        "tle_line2": "2 55973  97.5111 160.2902 0003890  30.8595 329.2879 15.41220257153698"
      },
      "geometry": {
        "type": "Point",
        "coordinates": [
          -27.810370843194544,
          -48.16852239827672
        ]
      }
    },
    {
      "type": "Feature",
      "properties": {
        "norad_id": 55974,
        "name": "TIANMU-1 04",
        "group": "weather",
        "lat": -4.101482406416738,
        "lon": 160.39462058155692,
        "alt_km": 442.33965587867624,
        "timestamp": "2025-12-23T16:57:11.988379+00:00",
        "meta_object_name": "TIANMU-1 04",
        "meta_object_id": "2023-039B",
        "meta_epoch": "2025-12-23T06:03:58.140864",
        "meta_mean_motion": 15.41560938,
        "meta_eccentricity": 0.0004503,
        "meta_inclination": 97.5042,
        "meta_ra_of_asc_node": 159.3868,
        "meta_arg_of_pericenter": 24.1422,
        "meta_mean_anomaly": 336.0035,
        "meta_ephemeris_type": 0,
        "meta_classification_type": "U",
        "meta_norad_cat_id": 55974,
        "meta_element_set_no": 999,
        "meta_rev_at_epoch": 15368,
        "meta_bstar": 0.0004156953,
        "meta_mean_motion_dot": 0.00017397,
        "meta_mean_motion_ddot": 0,
        "tle_line1": "1 55974U 23039B   25357.25275626  .00017397  00000+0  41570-3 0  9990",
        "tle_line2": "2 55974  97.5042 159.3868 0004503  24.1422 336.0035 15.41560938153681"
      },
      "geometry": {
        "type": "Point",
        "coordinates": [
          160.39462058155692,
          -4.101482406416738
        ]
      }
    },
    {
      "type": "Feature",
      "properties": {
        "norad_id": 55975,
        "name": "TIANMU-1 05",
        "group": "weather",
        "lat": 12.575885487041027,
        "lon": 158.65962751068193,
        "alt_km": 441.6881167137053,
        "timestamp": "2025-12-23T16:57:11.988391+00:00",
        "meta_object_name": "TIANMU-1 05",
        "meta_object_id": "2023-039C",
        "meta_epoch": "2025-12-23T07:32:56.166144",
        "meta_mean_motion": 15.41176488,
        "meta_eccentricity": 0.00040219,
        "meta_inclination": 97.5089,
        "meta_ra_of_asc_node": 159.9431,
        "meta_arg_of_pericenter": 49.3295,
        "meta_mean_anomaly": 310.8301,
        "meta_ephemeris_type": 0,
        "meta_classification_type": "U",
        "meta_norad_cat_id": 55975,
        "meta_element_set_no": 999,
        "meta_rev_at_epoch": 15367,
        "meta_bstar": 0.00037946148,
        "meta_mean_motion_dot": 0.00015667,
        "meta_mean_motion_ddot": 0,
        "tle_line1": "1 55975U 23039C   25357.31453896  .00015667  00000+0  37946-3 0  9995",
        "tle_line2": "2 55975  97.5089 159.9431 0004021  49.3295 310.8301 15.41176488153675"
      },
      "geometry": {
        "type": "Point",
        "coordinates": [
          158.65962751068193,
          12.575885487041027
        ]
      }
    },
    {
      "type": "Feature",
      "properties": {
        "norad_id": 55976,
        "name": "TIANMU-1 06",
        "group": "weather",
        "lat": -14.042750343763208,
        "lon": 162.71083850590043,
        "alt_km": 444.4129343405484,
        "timestamp": "2025-12-23T16:57:11.988402+00:00",
        "meta_object_name": "TIANMU-1 06",
        "meta_object_id": "2023-039D",
        "meta_epoch": "2025-12-23T06:06:35.636832",
        "meta_mean_motion": 15.41612314,
        "meta_eccentricity": 0.00042776,
        "meta_inclination": 97.5099,
        "meta_ra_of_asc_node": 160.3552,
        "meta_arg_of_pericenter": 43.6059,
        "meta_mean_anomaly": 316.5524,
        "meta_ephemeris_type": 0,
        "meta_classification_type": "U",
        "meta_norad_cat_id": 55976,
        "meta_element_set_no": 999,
        "meta_rev_at_epoch": 15368,
        "meta_bstar": 0.00041344841,
        "meta_mean_motion_dot": 0.00017331,
        "meta_mean_motion_ddot": 0,
        "tle_line1": "1 55976U 23039D   25357.25457913  .00017331  00000+0  41345-3 0  9991",
        "tle_line2": "2 55976  97.5099 160.3552 0004277  43.6059 316.5524 15.41612314153689"
      },
      "geometry": {
        "type": "Point",
        "coordinates": [
          162.71083850590043,
          -14.042750343763208
        ]
      }
    },
    {
      "type": "Feature",
      "properties": {
        "norad_id": 56232,
        "name": "FENGYUN 3G",
        "group": "weather",
        "lat": -47.76738759517793,
        "lon": 103.12510828945653,
        "alt_km": 408.2578668486094,
        "timestamp": "2025-12-23T16:57:11.988412+00:00",
        "meta_object_name": "FENGYUN 3G",
        "meta_object_id": "2023-055A",
        "meta_epoch": "2025-12-23T00:18:13.416192",
        "meta_mean_motion": 15.54230372,
        "meta_eccentricity": 0.00092801,
        "meta_inclination": 49.9923,
        "meta_ra_of_asc_node": 174.4174,
        "meta_arg_of_pericenter": 194.6693,
        "meta_mean_anomaly": 165.4007,
        "meta_ephemeris_type": 0,
        "meta_classification_type": "U",
        "meta_norad_cat_id": 56232,
        "meta_element_set_no": 999,
        "meta_rev_at_epoch": 15262,
        "meta_bstar": 0.00048841065,
        "meta_mean_motion_dot": 0.00032207,
        "meta_mean_motion_ddot": 0,
        "tle_line1": "1 56232U 23055A   25357.01265528  .00032207  00000+0  48841-3 0  9995",
        "tle_line2": "2 56232  49.9923 174.4174 0009280 194.6693 165.4007 15.54230372152622"
      },
      "geometry": {
        "type": "Point",
        "coordinates": [
          103.12510828945653,
          -47.76738759517793
        ]
      }
    },
    {
      "type": "Feature",
      "properties": {
        "norad_id": 57166,
        "name": "METEOR-M2 3",
        "group": "weather",
        "lat": -79.58368868316178,
        "lon": 106.82015704472286,
        "alt_km": 817.8693699208688,
        "timestamp": "2025-12-23T16:57:11.988432+00:00",
        "meta_object_name": "METEOR-M2 3",
        "meta_object_id": "2023-091A",
        "meta_epoch": "2025-12-23T07:13:47.740800",
        "meta_mean_motion": 14.240273,
        "meta_eccentricity": 0.00033339,
        "meta_inclination": 98.6363,
        "meta_ra_of_asc_node": 50.6555,
        "meta_arg_of_pericenter": 336.415,
        "meta_mean_anomaly": 23.6875,
        "meta_ephemeris_type": 0,
        "meta_classification_type": "U",
        "meta_norad_cat_id": 57166,
        "meta_element_set_no": 999,
        "meta_rev_at_epoch": 12948,
        "meta_bstar": 2.4218502e-05,
        "meta_mean_motion_dot": 1.2e-07,
        "meta_mean_motion_ddot": 0,
        "tle_line1": "1 57166U 23091A   25357.30124700  .00000012  00000+0  24219-4 0  9993",
        "tle_line2": "2 57166  98.6363  50.6555 0003333 336.4150  23.6875 14.24027300129480"
      },
      "geometry": {
        "type": "Point",
        "coordinates": [
          106.82015704472286,
          -79.58368868316178
        ]
      }
    },
    {
      "type": "Feature",
      "properties": {
        "norad_id": 57399,
        "name": "TIANMU-1 07",
        "group": "weather",
        "lat": -65.55199704457286,
        "lon": -149.0302692694989,
        "alt_km": 491.8091076981991,
        "timestamp": "2025-12-23T16:57:11.988451+00:00",
        "meta_object_name": "TIANMU-1 07",
        "meta_object_id": "2023-101A",
        "meta_epoch": "2025-12-23T08:01:13.598688",
        "meta_mean_motion": 15.28215213,
        "meta_eccentricity": 0.00051145,
        "meta_inclination": 97.2857,
        "meta_ra_of_asc_node": 46.9503,
        "meta_arg_of_pericenter": 54.6449,
        "meta_mean_anomaly": 305.5268,
        "meta_ephemeris_type": 0,
        "meta_classification_type": "U",
        "meta_norad_cat_id": 57399,
        "meta_element_set_no": 999,
        "meta_rev_at_epoch": 13477,
        "meta_bstar": 0.00027203049,
        "meta_mean_motion_dot": 7.41e-05,
        "meta_mean_motion_ddot": 0,
        "tle_line1": "1 57399U 23101A   25357.33418517  .00007410  00000+0  27203-3 0  9992",
        "tle_line2": "2 57399  97.2857  46.9503 0005114  54.6449 305.5268 15.28215213134774"
      },
      "geometry": {
        "type": "Point",
        "coordinates": [
          -149.0302692694989,
          -65.55199704457286
        ]
      }
    }
  ]
}